start=new Date('2021-10-27T00:00:00.000Z').valueOf();
sats=[{"PERIAPSIS":"357.066","EPHEMERIS_TYPE":"0","NORAD_CAT_ID":"49143","ARG_OF_PERICENTER":"290.8925","OBJECT_ID":"2021-082P","GP_ID":"188204941","LAUNCH_DATE":"2021-09-14","TIME_SYSTEM":"UTC","RCS_SIZE":"LARGE","MEAN_MOTION_DOT":"-0.00048746","MEAN_MOTION":"15.69785980","REF_FRAME":"TEME","PERIOD":"91.732","TLE_LINE1":"1 49143U 21082P   21299.91667824 -.00048746  00000-0 -40828-3 0  9996","SEMIMAJOR_AXIS":"6737.646","BSTAR":"-0.00040828000000","COUNTRY_CODE":"US","DECAY_DATE":null,"OBJECT_TYPE":"PAYLOAD","CENTER_NAME":"EARTH","APOAPSIS":"361.956","ELEMENT_SET_NO":"999","INCLINATION":"70.0014","FILE":"3185120","MEAN_MOTION_DDOT":"0.0000000000000","REV_AT_EPOCH":"682","OBJECT_NAME":"STARLINK-3109","SITE":"AFWTR","MEAN_ELEMENT_THEORY":"SGP4","CLASSIFICATION_TYPE":"U","ECCENTRICITY":"0.00036290","EPOCH":"2021-10-26T22:00:00.999936","TLE_LINE2":"2 49143  70.0014   6.5947 0003629 290.8925 265.0904 15.69785980  6821","MEAN_ANOMALY":"265.0904","RA_OF_ASC_NODE":"6.5947"},{"FILE":"3184921","INCLINATION":"69.9995","MEAN_MOTION_DDOT":"0.0000000000000","REV_AT_EPOCH":"366","APOAPSIS":"362.389","ELEMENT_SET_NO":"999","OBJECT_TYPE":"PAYLOAD","CENTER_NAME":"EARTH","COUNTRY_CODE":"US","DECAY_DATE":null,"SEMIMAJOR_AXIS":"6737.904","BSTAR":"0.00044808000000","TLE_LINE1":"1 49144U 21082Q   21299.58337963  .00053507  00000-0  44808-3 0  9999","RA_OF_ASC_NODE":"7.5249","MEAN_ANOMALY":"183.0225","TLE_LINE2":"2 49144  69.9995   7.5249 0003888 294.3690 183.0225 15.69695936  3663","MEAN_ELEMENT_THEORY":"SGP4","SITE":"AFWTR","CLASSIFICATION_TYPE":"U","EPOCH":"2021-10-26T14:00:04.000032","ECCENTRICITY":"0.00038880","OBJECT_NAME":"STARLINK-3100","GP_ID":"188200876","ARG_OF_PERICENTER":"294.3690","OBJECT_ID":"2021-082Q","NORAD_CAT_ID":"49144","PERIAPSIS":"357.149","EPHEMERIS_TYPE":"0","PERIOD":"91.738","REF_FRAME":"TEME","MEAN_MOTION":"15.69695936","MEAN_MOTION_DOT":"0.00053507","LAUNCH_DATE":"2021-09-14","RCS_SIZE":"LARGE","TIME_SYSTEM":"UTC"},{"GP_ID":"188205108","NORAD_CAT_ID":"49145","ARG_OF_PERICENTER":"290.9776","OBJECT_ID":"2021-082R","PERIAPSIS":"357.010","EPHEMERIS_TYPE":"0","PERIOD":"91.734","REF_FRAME":"TEME","MEAN_MOTION_DOT":"0.00005672","MEAN_MOTION":"15.69749921","LAUNCH_DATE":"2021-09-14","RCS_SIZE":"LARGE","TIME_SYSTEM":"UTC","FILE":"3185120","REV_AT_EPOCH":"682","MEAN_MOTION_DDOT":"0.0000000000000","INCLINATION":"69.9998","APOAPSIS":"362.219","ELEMENT_SET_NO":"999","COUNTRY_CODE":"US","DECAY_DATE":null,"OBJECT_TYPE":"PAYLOAD","CENTER_NAME":"EARTH","TLE_LINE1":"1 49145U 21082R   21299.91667824  .00005672  00000-0  49257-4 0  9993","SEMIMAJOR_AXIS":"6737.750","BSTAR":"0.00004925700000","MEAN_ANOMALY":"273.5505","RA_OF_ASC_NODE":"6.5816","TLE_LINE2":"2 49145  69.9998   6.5816 0003866 290.9776 273.5505 15.69749921  6820","OBJECT_NAME":"STARLINK-3119","SITE":"AFWTR","MEAN_ELEMENT_THEORY":"SGP4","EPOCH":"2021-10-26T22:00:00.999936","CLASSIFICATION_TYPE":"U","ECCENTRICITY":"0.00038660"},{"MEAN_MOTION":"15.69770644","MEAN_MOTION_DOT":"-0.00045393","REF_FRAME":"TEME","PERIOD":"91.733","LAUNCH_DATE":"2021-09-14","TIME_SYSTEM":"UTC","RCS_SIZE":"LARGE","OBJECT_ID":"2021-082S","NORAD_CAT_ID":"49146","ARG_OF_PERICENTER":"294.6242","GP_ID":"188200769","PERIAPSIS":"357.005","EPHEMERIS_TYPE":"0","RA_OF_ASC_NODE":"7.5227","MEAN_ANOMALY":"184.8625","MEAN_ELEMENT_THEORY":"SGP4","SITE":"AFWTR","CLASSIFICATION_TYPE":"U","ECCENTRICITY":"0.00037850","EPOCH":"2021-10-26T14:00:04.000032","OBJECT_NAME":"STARLINK-3116","TLE_LINE2":"2 49146  70.0010   7.5227 0003785 294.6242 184.8625 15.69770644  3667","APOAPSIS":"362.105","ELEMENT_SET_NO":"999","MEAN_MOTION_DDOT":"0.0000000000000","FILE":"3184921","INCLINATION":"70.0010","REV_AT_EPOCH":"366","BSTAR":"-0.00038015000000","SEMIMAJOR_AXIS":"6737.690","TLE_LINE1":"1 49146U 21082S   21299.58337963 -.00045393  00000-0 -38015-3 0  9990","OBJECT_TYPE":"PAYLOAD","CENTER_NAME":"EARTH","COUNTRY_CODE":"US","DECAY_DATE":null},{"SEMIMAJOR_AXIS":"6737.725","BSTAR":"0.00018675000000","TLE_LINE1":"1 49147U 21082T   21299.58337963  .00022151  00000-0  18675-3 0  9996","CENTER_NAME":"EARTH","OBJECT_TYPE":"PAYLOAD","COUNTRY_CODE":"US","DECAY_DATE":null,"ELEMENT_SET_NO":"999","APOAPSIS":"362.308","FILE":"3184921","MEAN_MOTION_DDOT":"0.0000000000000","INCLINATION":"69.9998","REV_AT_EPOCH":"366","ECCENTRICITY":"0.00040340","CLASSIFICATION_TYPE":"U","EPOCH":"2021-10-26T14:00:04.000032","MEAN_ELEMENT_THEORY":"SGP4","SITE":"AFWTR","OBJECT_NAME":"STARLINK-3071","TLE_LINE2":"2 49147  69.9998   7.5284 0004034 293.5836 181.6625 15.69758461  3666","RA_OF_ASC_NODE":"7.5284","MEAN_ANOMALY":"181.6625","EPHEMERIS_TYPE":"0","PERIAPSIS":"356.872","ARG_OF_PERICENTER":"293.5836","OBJECT_ID":"2021-082T","NORAD_CAT_ID":"49147","GP_ID":"188201324","RCS_SIZE":"LARGE","TIME_SYSTEM":"UTC","LAUNCH_DATE":"2021-09-14","MEAN_MOTION":"15.69758461","MEAN_MOTION_DOT":"0.00022151","REF_FRAME":"TEME","PERIOD":"91.734"},{"PERIOD":"91.734","REF_FRAME":"TEME","MEAN_MOTION":"15.69760504","MEAN_MOTION_DOT":"-0.00033720","RCS_SIZE":"LARGE","TIME_SYSTEM":"UTC","LAUNCH_DATE":"2021-09-14","GP_ID":"188201211","ARG_OF_PERICENTER":"294.3994","NORAD_CAT_ID":"49148","OBJECT_ID":"2021-082U","EPHEMERIS_TYPE":"0","PERIAPSIS":"356.928","RA_OF_ASC_NODE":"7.5167","MEAN_ANOMALY":"191.4889","TLE_LINE2":"2 49148  70.0012   7.5167 0003943 294.3994 191.4889 15.69760504  3661","CLASSIFICATION_TYPE":"U","EPOCH":"2021-10-26T14:00:04.000032","ECCENTRICITY":"0.00039430","SITE":"AFWTR","MEAN_ELEMENT_THEORY":"SGP4","OBJECT_NAME":"STARLINK-3048","FILE":"3184921","MEAN_MOTION_DDOT":"0.0000000000000","INCLINATION":"70.0012","REV_AT_EPOCH":"366","ELEMENT_SET_NO":"999","APOAPSIS":"362.241","CENTER_NAME":"EARTH","OBJECT_TYPE":"PAYLOAD","DECAY_DATE":null,"COUNTRY_CODE":"US","SEMIMAJOR_AXIS":"6737.719","BSTAR":"-0.00028165000000","TLE_LINE1":"1 49148U 21082U   21299.58337963 -.00033720  00000-0 -28165-3 0  9998"},{"EPHEMERIS_TYPE":"0","PERIAPSIS":"356.997","GP_ID":"188201573","ARG_OF_PERICENTER":"294.4147","NORAD_CAT_ID":"49149","OBJECT_ID":"2021-082V","TIME_SYSTEM":"UTC","RCS_SIZE":"LARGE","LAUNCH_DATE":"2021-09-14","PERIOD":"91.734","REF_FRAME":"TEME","MEAN_MOTION":"15.69762603","MEAN_MOTION_DOT":"-0.00029994","CENTER_NAME":"EARTH","OBJECT_TYPE":"PAYLOAD","COUNTRY_CODE":"US","DECAY_DATE":null,"SEMIMAJOR_AXIS":"6737.713","BSTAR":"-0.00025021000000","TLE_LINE1":"1 49149U 21082V   21299.83334491 -.00029994  00000-0 -25021-3 0  9996","FILE":"3184979","REV_AT_EPOCH":"801","MEAN_MOTION_DDOT":"0.0000000000000","INCLINATION":"69.9994","ELEMENT_SET_NO":"999","APOAPSIS":"362.159","TLE_LINE2":"2 49149  69.9994   6.8152 0003831 294.4147 161.3691 15.69762603  8014","CLASSIFICATION_TYPE":"U","ECCENTRICITY":"0.00038310","EPOCH":"2021-10-26T20:00:01.000224","SITE":"AFWTR","MEAN_ELEMENT_THEORY":"SGP4","OBJECT_NAME":"STARLINK-3053","RA_OF_ASC_NODE":"6.8152","MEAN_ANOMALY":"161.3691"},{"ELEMENT_SET_NO":"999","APOAPSIS":"362.382","FILE":"3184921","MEAN_MOTION_DDOT":"0.0000000000000","REV_AT_EPOCH":"366","INCLINATION":"70.0002","BSTAR":"0.00052926000000","SEMIMAJOR_AXIS":"6737.835","TLE_LINE1":"1 49150U 21082W   21299.58337963  .00063378  00000-0  52926-3 0  9993","CENTER_NAME":"EARTH","OBJECT_TYPE":"PAYLOAD","COUNTRY_CODE":"US","DECAY_DATE":null,"RA_OF_ASC_NODE":"7.5087","MEAN_ANOMALY":"195.9142","EPOCH":"2021-10-26T14:00:04.000032","CLASSIFICATION_TYPE":"U","ECCENTRICITY":"0.00039810","SITE":"AFWTR","MEAN_ELEMENT_THEORY":"SGP4","OBJECT_NAME":"STARLINK-3104","TLE_LINE2":"2 49150  70.0002   7.5087 0003981 294.1673 195.9142 15.69720099  3664","ARG_OF_PERICENTER":"294.1673","NORAD_CAT_ID":"49150","OBJECT_ID":"2021-082W","GP_ID":"188201104","EPHEMERIS_TYPE":"0","PERIAPSIS":"357.018","MEAN_MOTION":"15.69720099","MEAN_MOTION_DOT":"0.00063378","REF_FRAME":"TEME","PERIOD":"91.736","TIME_SYSTEM":"UTC","RCS_SIZE":"LARGE","LAUNCH_DATE":"2021-09-14"},{"REF_FRAME":"TEME","PERIOD":"91.738","MEAN_MOTION_DOT":"0.00062923","MEAN_MOTION":"15.69694020","LAUNCH_DATE":"2021-09-14","RCS_SIZE":"LARGE","TIME_SYSTEM":"UTC","GP_ID":"188201434","NORAD_CAT_ID":"49151","ARG_OF_PERICENTER":"295.5179","OBJECT_ID":"2021-082X","PERIAPSIS":"357.174","EPHEMERIS_TYPE":"0","MEAN_ANOMALY":"192.5196","RA_OF_ASC_NODE":"7.5110","TLE_LINE2":"2 49151  70.0002   7.5110 0003859 295.5179 192.5196 15.69694020  3668","OBJECT_NAME":"STARLINK-3102","SITE":"AFWTR","MEAN_ELEMENT_THEORY":"SGP4","ECCENTRICITY":"0.00038590","CLASSIFICATION_TYPE":"U","EPOCH":"2021-10-26T14:00:04.000032","FILE":"3184921","INCLINATION":"70.0002","MEAN_MOTION_DDOT":"0.0000000000000","REV_AT_EPOCH":"366","APOAPSIS":"362.375","ELEMENT_SET_NO":"999","COUNTRY_CODE":"US","DECAY_DATE":null,"OBJECT_TYPE":"PAYLOAD","CENTER_NAME":"EARTH","TLE_LINE1":"1 49151U 21082X   21299.58337963  .00062923  00000-0  52608-3 0  9996","BSTAR":"0.00052608000000","SEMIMAJOR_AXIS":"6737.909"},{"LAUNCH_DATE":"2021-09-14","TIME_SYSTEM":"UTC","RCS_SIZE":"LARGE","MEAN_MOTION":"15.69700079","MEAN_MOTION_DOT":"0.00057824","PERIOD":"91.737","REF_FRAME":"TEME","PERIAPSIS":"357.159","EPHEMERIS_TYPE":"0","NORAD_CAT_ID":"49152","OBJECT_ID":"2021-082Y","ARG_OF_PERICENTER":"296.4700","GP_ID":"188200877","SITE":"AFWTR","MEAN_ELEMENT_THEORY":"SGP4","ECCENTRICITY":"0.00038560","CLASSIFICATION_TYPE":"U","EPOCH":"2021-10-26T14:00:04.000032","OBJECT_NAME":"STARLINK-3081","TLE_LINE2":"2 49152  70.0010   7.5029 0003856 296.4700 200.0898 15.69700079  3660","RA_OF_ASC_NODE":"7.5029","MEAN_ANOMALY":"200.0898","SEMIMAJOR_AXIS":"6737.892","BSTAR":"0.00048376000000","TLE_LINE1":"1 49152U 21082Y   21299.58337963  .00057824  00000-0  48376-3 0  9998","OBJECT_TYPE":"PAYLOAD","CENTER_NAME":"EARTH","DECAY_DATE":null,"COUNTRY_CODE":"US","APOAPSIS":"362.355","ELEMENT_SET_NO":"999","FILE":"3184921","INCLINATION":"70.0010","MEAN_MOTION_DDOT":"0.0000000000000","REV_AT_EPOCH":"366"}];
